FENGYUN 1C DEB          
1 31719U 99025CDS 17344.99841428  .00001538  00000-0  12845-2 0  9999
2 31719  97.5557 262.8701 0214701 357.3669   2.6341 13.79406184183169
